{
    "links": {
        "self": "http://www.neowsapp.com/rest/v1/neo/54054633?api_key=iIulBulltgU6a56xZRHN4H3l9WmuAYTsLGpBGhQ2"
    },
    "id": "54054633",
    "neo_reference_id": "54054633",
    "name": "(2020 SV4)",
    "designation": "2020 SV4",
    "nasa_jpl_url": "http://ssd.jpl.nasa.gov/sbdb.cgi?sstr=54054633",
    "absolute_magnitude_h": 26.816,
    "estimated_diameter": {
        "kilometers": {
            "estimated_diameter_min": 0.011517414,
            "estimated_diameter_max": 0.0257537205
        },
        "meters": {
            "estimated_diameter_min": 11.5174139609,
            "estimated_diameter_max": 25.7537205416
        },
        "miles": {
            "estimated_diameter_min": 0.007156587,
            "estimated_diameter_max": 0.0160026151
        },
        "feet": {
            "estimated_diameter_min": 37.7867924196,
            "estimated_diameter_max": 84.4938365019
        }
    },
    "is_potentially_hazardous_asteroid": false,
    "close_approach_data": [
        {
            "close_approach_date": "2020-09-16",
            "close_approach_date_full": "2020-Sep-16 21:22",
            "epoch_date_close_approach": 1600291320000,
            "relative_velocity": {
                "kilometers_per_second": "8.0092341705",
                "kilometers_per_hour": "28833.2430138193",
                "miles_per_hour": "17915.8559160035"
            },
            "miss_distance": {
                "astronomical": "0.0221863237",
                "lunar": "8.6304799193",
                "kilometers": "3319026.768650519",
                "miles": "2062347.6017104022"
            },
            "orbiting_body": "Earth"
        }
    ],
    "orbital_data": {
        "orbit_id": "1",
        "orbit_determination_date": "2020-09-25 05:12:21",
        "first_observation_date": "2020-09-23",
        "last_observation_date": "2020-09-25",
        "data_arc_in_days": 2,
        "observations_used": 18,
        "orbit_uncertainty": "9",
        "minimum_orbit_intersection": ".0123204",
        "jupiter_tisserand_invariant": "3.267",
        "epoch_osculation": "2459116.5",
        "eccentricity": ".5793526271642242",
        "semi_major_axis": "2.412693528846342",
        "inclination": ".6863324191081775",
        "ascending_node_longitude": "97.87526425637716",
        "orbital_period": "1368.836779875611",
        "perihelion_distance": "1.014893194367091",
        "perihelion_argument": "244.5621731988095",
        "aphelion_distance": "3.810493863325593",
        "perihelion_time": "2459100.036939707203",
        "mean_anomaly": "4.329735869564735",
        "mean_motion": ".2629970244025105",
        "equinox": "J2000",
        "orbit_class": {
            "orbit_class_type": "APO",
            "orbit_class_description": "Near-Earth asteroid orbits which cross the Earth’s orbit similar to that of 1862 Apollo",
            "orbit_class_range": "a (semi-major axis) > 1.0 AU; q (perihelion) < 1.017 AU"
        }
    },
    "is_sentry_object": false
}